STARLINK-31290          
1 59085U 24041M   26068.01757978 -.00001508  00000+0 -45297-4 0  9990
2 59085  43.0032 300.2318 0001282 262.0097  98.0610 15.27576822114473
HAWK-11B                
1 62379U 24247C   26068.44730104  .00009093  00000+0  32842-3 0  9993
2 62379  45.0161 115.7610 0004690 333.0326  27.0314 15.28847070 67738
